QZS-1R                  
1 49336U 21096A   23311.27951372 -.00000203  00000+0  00000+0 0  9993
2 49336  35.4875  93.9358 0748911 270.4288 277.6888  1.00271302  7444
